{"type": "FeatureCollection", "features": [ {"type": "Feature", "properties": {"norad_id": 33841, "name": "COSMOS 2251 DEB", "group": "cosmos-2251-debris", "lat": -6.2888059088496355, "lon": -108.07949361798251, "alt_km": 754.9719453698281, "timestamp": "2025-12-25T22:42:17.405943+00:00", "meta": {"OBJECT_NAME": "COSMOS 2251 DEB", "OBJECT_ID": "1993-036CJ", "EPOCH": "2025-12-25T03:01:24.157056", "MEAN_MOTION": 14.3787742, "ECCENTRICITY": 0.0021023, "INCLINATION": 74.0374, "RA_OF_ASC_NODE": 255.2374, "ARG_OF_PERICENTER": 333.3803, "MEAN_ANOMALY": 96.8837, "EPHEMERIS_TYPE": 0, "CLASSIFICATION_TYPE": "U", "NORAD_CAT_ID": 33841, "ELEMENT_SET_NO": 999, "REV_AT_EPOCH": 88292, "BSTAR": 0.00020984917, "MEAN_MOTION_DOT": 6.08e-06, "MEAN_MOTION_DDOT": 0}, "tle": {"line1": "1 33841U 93036CJ  25359.12597404  .00000608  00000+0  20985-3 0  9996", "line2": "2 33841  74.0374 255.2374 0021023 333.3803  96.8837 14.37877420882928"}}, "geometry": {"type": "Point", "coordinates": [-108.07949361798251, -6.2888059088496355]}}, {"type": "Feature", "properties": {"norad_id": 33842, "name": "COSMOS 2251 DEB", "group": "cosmos-2251-debris", "lat": 57.93189836120769, "lon": -12.056124440487693, "alt_km": 777.4931899852581, "timestamp": "2025-12-25T22:42:17.405953+00:00", "meta": {"OBJECT_NAME": "COSMOS 2251 DEB", "OBJECT_ID": "1993-036CK", "EPOCH": "2025-12-24T22:51:30.450528", "MEAN_MOTION": 14.42719632, "ECCENTRICITY": 0.00475856, "INCLINATION": 74.0316, "RA_OF_ASC_NODE": 196.9828, "ARG_OF_PERICENTER": 301.8992, "MEAN_ANOMALY": 57.7539, "EPHEMERIS_TYPE": 0, "CLASSIFICATION_TYPE": "U", "NORAD_CAT_ID": 33842, "ELEMENT_SET_NO": 999, "REV_AT_EPOCH": 88513, "BSTAR": 0.00025425841, "MEAN_MOTION_DOT": 8.31e-06, "MEAN_MOTION_DDOT": 0}, "tle": {"line1": "1 33842U 93036CK  25358.95243577  .00000831  00000+0  25426-3 0  9999", "line2": "2 33842  74.0316 196.9828 0047585 301.8992  57.7539 14.42719632885137"}}, "geometry": {"type": "Point", "coordinates": [-12.056124440487693, 57.93189836120769]}}, {"type": "Feature", "properties": {"norad_id": 33844, "name": "COSMOS 2251 DEB", "group": "cosmos-2251-debris", "lat": -17.82326770496687, "lon": 23.398257425021143, "alt_km": 769.3741021782153, "timestamp": "2025-12-25T22:42:17.405963+00:00", "meta": {"OBJECT_NAME": "COSMOS 2251 DEB", "OBJECT_ID": "1993-036CM", "EPOCH": "2025-12-25T13:17:44.608992", "MEAN_MOTION": 14.33741262, "ECCENTRICITY": 0.004722, "INCLINATION": 74.0664, "RA_OF_ASC_NODE": 29.3837, "ARG_OF_PERICENTER": 47.2297, "MEAN_ANOMALY": 72.0893, "EPHEMERIS_TYPE": 0, "CLASSIFICATION_TYPE": "U", "NORAD_CAT_ID": 33844, "ELEMENT_SET_NO": 999, "REV_AT_EPOCH": 87909, "BSTAR": 0.00036056, "MEAN_MOTION_DOT": 9.89e-06, "MEAN_MOTION_DDOT": 0}, "tle": {"line1": "1 33844U 93036CM  25359.55398853  .00000989  00000+0  36056-3 0  9991", "line2": "2 33844  74.0664  29.3837 0047220  47.2297  72.0893 14.33741262879094"}}, "geometry": {"type": "Point", "coordinates": [23.398257425021143, -17.82326770496687]}}, {"type": "Feature", "properties": {"norad_id": 33848, "name": "COSMOS 2251 DEB", "group": "cosmos-2251-debris", "lat": -61.695366502536174, "lon": -59.04787938971559, "alt_km": 752.2200644818895, "timestamp": "2025-12-25T22:42:17.405974+00:00", "meta": {"OBJECT_NAME": "COSMOS 2251 DEB", "OBJECT_ID": "1993-036CR", "EPOCH": "2025-12-25T15:14:41.354304", "MEAN_MOTION": 14.44151779, "ECCENTRICITY": 0.0041938, "INCLINATION": 74.0324, "RA_OF_ASC_NODE": 333.6473, "ARG_OF_PERICENTER": 25.7702, "MEAN_ANOMALY": 93.0831, "EPHEMERIS_TYPE": 0, "CLASSIFICATION_TYPE": "U", "NORAD_CAT_ID": 33848, "ELEMENT_SET_NO": 999, "REV_AT_EPOCH": 88017, "BSTAR": 0.0012844, "MEAN_MOTION_DOT": 4.427e-05, "MEAN_MOTION_DDOT": 0}, "tle": {"line1": "1 33848U 93036CR  25359.63520086  .00004427  00000+0  12844-2 0  9998", "line2": "2 33848  74.0324 333.6473 0041938  25.7702  93.0831 14.44151779880176"}}, "geometry": {"type": "Point", "coordinates": [-59.04787938971559, -61.695366502536174]}}, {"type": "Feature", "properties": {"norad_id": 33892, "name": "COSMOS 2251 DEB", "group": "cosmos-2251-debris", "lat": -44.635964284262855, "lon": 61.287732417486964, "alt_km": 892.2996901218248, "timestamp": "2025-12-25T22:42:17.405984+00:00", "meta": {"OBJECT_NAME": "COSMOS 2251 DEB", "OBJECT_ID": "1993-036CV", "EPOCH": "2025-12-25T08:03:07.750368", "MEAN_MOTION": 14.23378094, "ECCENTRICITY": 0.0112112, "INCLINATION": 73.8025, "RA_OF_ASC_NODE": 79.0793, "ARG_OF_PERICENTER": 107.8295, "MEAN_ANOMALY": 318.5772, "EPHEMERIS_TYPE": 0, "CLASSIFICATION_TYPE": "U", "NORAD_CAT_ID": 33892, "ELEMENT_SET_NO": 999, "REV_AT_EPOCH": 87134, "BSTAR": 0.00060646, "MEAN_MOTION_DOT": 1.442e-05, "MEAN_MOTION_DDOT": 0}, "tle": {"line1": "1 33892U 93036CV  25359.33550637  .00001442  00000+0  60646-3 0  9997", "line2": "2 33892  73.8025  79.0793 0112112 107.8295 318.5772 14.23378094871344"}}, "geometry": {"type": "Point", "coordinates": [61.287732417486964, -44.635964284262855]}}, {"type": "Feature", "properties": {"norad_id": 33894, "name": "COSMOS 2251 DEB", "group": "cosmos-2251-debris", "lat": 54.94814095400416, "lon": -6.820866698838337, "alt_km": 1606.8728888164442, "timestamp": "2025-12-25T22:42:17.405994+00:00", "meta": {"OBJECT_NAME": "COSMOS 2251 DEB", "OBJECT_ID": "1993-036CX", "EPOCH": "2025-12-25T15:06:55.116576", "MEAN_MOTION": 13.2132861, "ECCENTRICITY": 0.0578594, "INCLINATION": 73.7663, "RA_OF_ASC_NODE": 329.132, "ARG_OF_PERICENTER": 246.8452, "MEAN_ANOMALY": 107.0692, "EPHEMERIS_TYPE": 0, "CLASSIFICATION_TYPE": "U", "NORAD_CAT_ID": 33894, "ELEMENT_SET_NO": 999, "REV_AT_EPOCH": 80878, "BSTAR": 0.00061723, "MEAN_MOTION_DOT": 5.9e-06, "MEAN_MOTION_DDOT": 0}, "tle": {"line1": "1 33894U 93036CX  25359.62980459  .00000590  00000+0  61723-3 0  9990", "line2": "2 33894  73.7663 329.1320 0578594 246.8452 107.0692 13.21328610808783"}}, "geometry": {"type": "Point", "coordinates": [-6.820866698838337, 54.94814095400416]}}, {"type": "Feature", "properties": {"norad_id": 33896, "name": "COSMOS 2251 DEB", "group": "cosmos-2251-debris", "lat": 2.6856755630468907, "lon": -48.07572963358951, "alt_km": 887.9443400870623, "timestamp": "2025-12-25T22:42:17.406004+00:00", "meta": {"OBJECT_NAME": "COSMOS 2251 DEB", "OBJECT_ID": "1993-036CZ", "EPOCH": "2025-12-25T15:10:08.224896", "MEAN_MOTION": 14.19068816, "ECCENTRICITY": 0.0127213, "INCLINATION": 73.7666, "RA_OF_ASC_NODE": 133.2772, "ARG_OF_PERICENTER": 306.8958, "MEAN_ANOMALY": 67.8616, "EPHEMERIS_TYPE": 0, "CLASSIFICATION_TYPE": "U", "NORAD_CAT_ID": 33896, "ELEMENT_SET_NO": 999, "REV_AT_EPOCH": 86923, "BSTAR": 0.00066526, "MEAN_MOTION_DOT": 1.479e-05, "MEAN_MOTION_DDOT": 0}, "tle": {"line1": "1 33896U 93036CZ  25359.63203964  .00001479  00000+0  66526-3 0  9995", "line2": "2 33896  73.7666 133.2772 0127213 306.8958  67.8616 14.19068816869232"}}, "geometry": {"type": "Point", "coordinates": [-48.07572963358951, 2.6856755630468907]}}, {"type": "Feature", "properties": {"norad_id": 33899, "name": "COSMOS 2251 DEB", "group": "cosmos-2251-debris", "lat": 38.72954911244097, "lon": 73.75806697758945, "alt_km": 677.7146876427887, "timestamp": "2025-12-25T22:42:17.406014+00:00", "meta": {"OBJECT_NAME": "COSMOS 2251 DEB", "OBJECT_ID": "1993-036DC", "EPOCH": "2025-12-25T04:34:52.061376", "MEAN_MOTION": 14.61291008, "ECCENTRICITY": 0.00559701, "INCLINATION": 74.0532, "RA_OF_ASC_NODE": 61.9432, "ARG_OF_PERICENTER": 120.9342, "MEAN_ANOMALY": 269.4, "EPHEMERIS_TYPE": 0, "CLASSIFICATION_TYPE": "U", "NORAD_CAT_ID": 33899, "ELEMENT_SET_NO": 999, "REV_AT_EPOCH": 89021, "BSTAR": 0.00082401732, "MEAN_MOTION_DOT": 4.131e-05, "MEAN_MOTION_DDOT": 0}, "tle": {"line1": "1 33899U 93036DC  25359.19088034  .00004131  00000+0  82402-3 0  9997", "line2": "2 33899  74.0532  61.9432 0055970 120.9342 269.4000 14.61291008890210"}}, "geometry": {"type": "Point", "coordinates": [73.75806697758945, 38.72954911244097]}}, {"type": "Feature", "properties": {"norad_id": 33900, "name": "COSMOS 2251 DEB", "group": "cosmos-2251-debris", "lat": -56.222824936201334, "lon": -50.66802288688636, "alt_km": 737.8283763539866, "timestamp": "2025-12-25T22:42:17.406024+00:00", "meta": {"OBJECT_NAME": "COSMOS 2251 DEB", "OBJECT_ID": "1993-036DD", "EPOCH": "2025-12-25T08:50:54.447072", "MEAN_MOTION": 14.58390981, "ECCENTRICITY": 0.0046325, "INCLINATION": 74.0196, "RA_OF_ASC_NODE": 335.7997, "ARG_OF_PERICENTER": 124.1586, "MEAN_ANOMALY": 26.0739, "EPHEMERIS_TYPE": 0, "CLASSIFICATION_TYPE": "U", "NORAD_CAT_ID": 33900, "ELEMENT_SET_NO": 999, "REV_AT_EPOCH": 89220, "BSTAR": 0.00043405, "MEAN_MOTION_DOT": 2.012e-05, "MEAN_MOTION_DDOT": 0}, "tle": {"line1": "1 33900U 93036DD  25359.36868573  .00002012  00000+0  43405-3 0  9999", "line2": "2 33900  74.0196 335.7997 0046325 124.1586  26.0739 14.58390981892200"}}, "geometry": {"type": "Point", "coordinates": [-50.66802288688636, -56.222824936201334]}}, {"type": "Feature", "properties": {"norad_id": 33901, "name": "COSMOS 2251 DEB", "group": "cosmos-2251-debris", "lat": 11.308243134792784, "lon": -162.0249462286186, "alt_km": 495.4975499792854, "timestamp": "2025-12-25T22:42:17.406034+00:00", "meta": {"OBJECT_NAME": "COSMOS 2251 DEB", "OBJECT_ID": "1993-036DE", "EPOCH": "2025-12-25T12:28:22.218240", "MEAN_MOTION": 15.17250961, "ECCENTRICITY": 0.0029794, "INCLINATION": 73.7744, "RA_OF_ASC_NODE": 22.2172, "ARG_OF_PERICENTER": 152.012, "MEAN_ANOMALY": 208.2685, "EPHEMERIS_TYPE": 0, "CLASSIFICATION_TYPE": "U", "NORAD_CAT_ID": 33901, "ELEMENT_SET_NO": 999, "REV_AT_EPOCH": 89707, "BSTAR": 0.0024799, "MEAN_MOTION_DOT": 0.00050239, "MEAN_MOTION_DDOT": 0}, "tle": {"line1": "1 33901U 93036DE  25359.51970160  .00050239  00000+0  24799-2 0  9991", "line2": "2 33901  73.7744  22.2172 0029794 152.0120 208.2685 15.17250961897077"}}, "geometry": {"type": "Point", "coordinates": [-162.0249462286186, 11.308243134792784]}}]}